CCSDS_OMM_VERS = 2.0
CREATION_DATE  = 
ORIGINATOR     = 

OBJECT_NAME    = ARIANE 40 R/B
OBJECT_ID      = 1990-005H
CENTER_NAME    = EARTH
REF_FRAME      = TEME
TIME_SYSTEM    = UTC
MEAN_ELEMENT_THEORY = SGP/SGP4

EPOCH          = 2025-11-25T02:05:58.803360
MEAN_MOTION    = 14.39778874
ECCENTRICITY   = .0010736
INCLINATION    = 98.3266
RA_OF_ASC_NODE = 27.7625
ARG_OF_PERICENTER = 154.0954
MEAN_ANOMALY   = 206.0774

EPHEMERIS_TYPE = 0
CLASSIFICATION_TYPE = U
NORAD_CAT_ID   = 20443
ELEMENT_SET_NO = 999
REV_AT_EPOCH   = 87775
BSTAR          = .14047E-3
MEAN_MOTION_DOT = .398E-5
MEAN_MOTION_DDOT = 0

CCSDS_OMM_VERS = 2.0
CREATION_DATE  = 
ORIGINATOR     = 

OBJECT_NAME    = DELTA 2 R/B(1)
OBJECT_ID      = 1990-008B
CENTER_NAME    = EARTH
REF_FRAME      = TEME
TIME_SYSTEM    = UTC
MEAN_ELEMENT_THEORY = SGP/SGP4

EPOCH          = 2025-11-24T18:40:59.185920
MEAN_MOTION    = 15.43475177
ECCENTRICITY   = .0114648
INCLINATION    = 35.6049
RA_OF_ASC_NODE = 136.3570
ARG_OF_PERICENTER = 14.0640
MEAN_ANOMALY   = 346.3244

EPHEMERIS_TYPE = 0
CLASSIFICATION_TYPE = U
NORAD_CAT_ID   = 20453
ELEMENT_SET_NO = 999
REV_AT_EPOCH   = 90985
BSTAR          = .62113586E-3
MEAN_MOTION_DOT = .36811E-3
MEAN_MOTION_DDOT = 0

CCSDS_OMM_VERS = 2.0
CREATION_DATE  = 
ORIGINATOR     = 

OBJECT_NAME    = COSMOS 2058
OBJECT_ID      = 1990-010A
CENTER_NAME    = EARTH
REF_FRAME      = TEME
TIME_SYSTEM    = UTC
MEAN_ELEMENT_THEORY = SGP/SGP4

EPOCH          = 2025-11-25T00:03:32.885280
MEAN_MOTION    = 15.10245890
ECCENTRICITY   = .0009465
INCLINATION    = 82.4630
RA_OF_ASC_NODE = 150.4804
ARG_OF_PERICENTER = 344.9275
MEAN_ANOMALY   = 15.1671

EPHEMERIS_TYPE = 0
CLASSIFICATION_TYPE = U
NORAD_CAT_ID   = 20465
ELEMENT_SET_NO = 999
REV_AT_EPOCH   = 92643
BSTAR          = .30248E-3
MEAN_MOTION_DOT = .4979E-4
MEAN_MOTION_DDOT = 0

CCSDS_OMM_VERS = 2.0
CREATION_DATE  = 
ORIGINATOR     = 

OBJECT_NAME    = SL-14 R/B
OBJECT_ID      = 1990-010B
CENTER_NAME    = EARTH
REF_FRAME      = TEME
TIME_SYSTEM    = UTC
MEAN_ELEMENT_THEORY = SGP/SGP4

EPOCH          = 2025-11-25T01:45:15.950592
MEAN_MOTION    = 14.83447682
ECCENTRICITY   = .0018302
INCLINATION    = 82.5032
RA_OF_ASC_NODE = 5.6396
ARG_OF_PERICENTER = 285.8790
MEAN_ANOMALY   = 74.0407

EPHEMERIS_TYPE = 0
CLASSIFICATION_TYPE = U
NORAD_CAT_ID   = 20466
ELEMENT_SET_NO = 999
REV_AT_EPOCH   = 91297
BSTAR          = .63217E-4
MEAN_MOTION_DOT = .544E-5
MEAN_MOTION_DDOT = 0

CCSDS_OMM_VERS = 2.0
CREATION_DATE  = 
ORIGINATOR     = 

OBJECT_NAME    = SL-14 R/B
OBJECT_ID      = 1990-018B
CENTER_NAME    = EARTH
REF_FRAME      = TEME
TIME_SYSTEM    = UTC
MEAN_ELEMENT_THEORY = SGP/SGP4

EPOCH          = 2025-11-25T01:23:21.268320
MEAN_MOTION    = 14.82019987
ECCENTRICITY   = .0017967
INCLINATION    = 82.5198
RA_OF_ASC_NODE = 320.8934
ARG_OF_PERICENTER = 77.6517
MEAN_ANOMALY   = 282.6707

EPHEMERIS_TYPE = 0
CLASSIFICATION_TYPE = U
NORAD_CAT_ID   = 20511
ELEMENT_SET_NO = 999
REV_AT_EPOCH   = 90708
BSTAR          = .6734E-4
MEAN_MOTION_DOT = .559E-5
MEAN_MOTION_DDOT = 0

CCSDS_OMM_VERS = 2.0
CREATION_DATE  = 
ORIGINATOR     = 

OBJECT_NAME    = HST
OBJECT_ID      = 1990-037B
CENTER_NAME    = EARTH
REF_FRAME      = TEME
TIME_SYSTEM    = UTC
MEAN_ELEMENT_THEORY = SGP/SGP4

EPOCH          = 2025-11-24T21:28:13.344960
MEAN_MOTION    = 15.27692219
ECCENTRICITY   = .0001962
INCLINATION    = 28.4701
RA_OF_ASC_NODE = 33.9153
ARG_OF_PERICENTER = 52.6598
MEAN_ANOMALY   = 307.4176

EPHEMERIS_TYPE = 0
CLASSIFICATION_TYPE = U
NORAD_CAT_ID   = 20580
ELEMENT_SET_NO = 999
REV_AT_EPOCH   = 75726
BSTAR          = .30886E-3
MEAN_MOTION_DOT = .8828E-4
MEAN_MOTION_DDOT = 0

CCSDS_OMM_VERS = 2.0
CREATION_DATE  = 
ORIGINATOR     = 

OBJECT_NAME    = SL-16 R/B
OBJECT_ID      = 1990-046B
CENTER_NAME    = EARTH
REF_FRAME      = TEME
TIME_SYSTEM    = UTC
MEAN_ELEMENT_THEORY = SGP/SGP4

EPOCH          = 2025-11-24T22:21:11.447136
MEAN_MOTION    = 14.14991565
ECCENTRICITY   = .0012251
INCLINATION    = 70.9962
RA_OF_ASC_NODE = 157.9205
ARG_OF_PERICENTER = 106.4903
MEAN_ANOMALY   = 253.7566

EPHEMERIS_TYPE = 0
CLASSIFICATION_TYPE = U
NORAD_CAT_ID   = 20625
ELEMENT_SET_NO = 999
REV_AT_EPOCH   = 83357
BSTAR          = .13943E-3
MEAN_MOTION_DOT = .223E-5
MEAN_MOTION_DDOT = 0

CCSDS_OMM_VERS = 2.0
CREATION_DATE  = 
ORIGINATOR     = 

OBJECT_NAME    = COSMOS 2084
OBJECT_ID      = 1990-055A
CENTER_NAME    = EARTH
REF_FRAME      = TEME
TIME_SYSTEM    = UTC
MEAN_ELEMENT_THEORY = SGP/SGP4

EPOCH          = 2025-11-25T02:13:28.473024
MEAN_MOTION    = 15.04858853
ECCENTRICITY   = .0034512
INCLINATION    = 62.7911
RA_OF_ASC_NODE = 332.1160
ARG_OF_PERICENTER = 172.5294
MEAN_ANOMALY   = 187.6328

EPHEMERIS_TYPE = 0
CLASSIFICATION_TYPE = U
NORAD_CAT_ID   = 20663
ELEMENT_SET_NO = 999
REV_AT_EPOCH   = 92057
BSTAR          = .24417E-3
MEAN_MOTION_DOT = .3308E-4
MEAN_MOTION_DDOT = 0

CCSDS_OMM_VERS = 2.0
CREATION_DATE  = 
ORIGINATOR     = 

OBJECT_NAME    = SL-6 R/B(2)
OBJECT_ID      = 1990-055D
CENTER_NAME    = EARTH
REF_FRAME      = TEME
TIME_SYSTEM    = UTC
MEAN_ELEMENT_THEORY = SGP/SGP4

EPOCH          = 2025-11-25T01:40:56.712576
MEAN_MOTION    = 15.02957326
ECCENTRICITY   = .0011279
INCLINATION    = 62.7831
RA_OF_ASC_NODE = 249.4474
ARG_OF_PERICENTER = 294.5532
MEAN_ANOMALY   = 65.4391

EPHEMERIS_TYPE = 0
CLASSIFICATION_TYPE = U
NORAD_CAT_ID   = 20666
ELEMENT_SET_NO = 999
REV_AT_EPOCH   = 92246
BSTAR          = .25096E-3
MEAN_MOTION_DOT = .3198E-4
MEAN_MOTION_DDOT = 0

CCSDS_OMM_VERS = 2.0
CREATION_DATE  = 
ORIGINATOR     = 

OBJECT_NAME    = SL-8 R/B
OBJECT_ID      = 1990-078B
CENTER_NAME    = EARTH
REF_FRAME      = TEME
TIME_SYSTEM    = UTC
MEAN_ELEMENT_THEORY = SGP/SGP4

EPOCH          = 2025-11-25T01:58:26.558112
MEAN_MOTION    = 14.84862212
ECCENTRICITY   = .0377634
INCLINATION    = 82.9053
RA_OF_ASC_NODE = 345.1023
ARG_OF_PERICENTER = 5.1497
MEAN_ANOMALY   = 355.3428

EPHEMERIS_TYPE = 0
CLASSIFICATION_TYPE = U
NORAD_CAT_ID   = 20775
ELEMENT_SET_NO = 999
REV_AT_EPOCH   = 79375
BSTAR          = .83532E-3
MEAN_MOTION_DOT = .26985E-3
MEAN_MOTION_DDOT = 0

CCSDS_OMM_VERS = 2.0
CREATION_DATE  = 
ORIGINATOR     = 

OBJECT_NAME    = SL-8 R/B
OBJECT_ID      = 1991-006B
CENTER_NAME    = EARTH
REF_FRAME      = TEME
TIME_SYSTEM    = UTC
MEAN_ELEMENT_THEORY = SGP/SGP4

EPOCH          = 2025-11-25T00:24:51.728832
MEAN_MOTION    = 13.77486969
ECCENTRICITY   = .0021947
INCLINATION    = 82.9429
RA_OF_ASC_NODE = 247.8942
ARG_OF_PERICENTER = 332.0379
MEAN_ANOMALY   = 38.8459

EPHEMERIS_TYPE = 0
CLASSIFICATION_TYPE = U
NORAD_CAT_ID   = 21088
ELEMENT_SET_NO = 999
REV_AT_EPOCH   = 74966
BSTAR          = .10874E-3
MEAN_MOTION_DOT = .123E-5
MEAN_MOTION_DDOT = 0

CCSDS_OMM_VERS = 2.0
CREATION_DATE  = 
ORIGINATOR     = 

OBJECT_NAME    = OKEAN-3
OBJECT_ID      = 1991-039A
CENTER_NAME    = EARTH
REF_FRAME      = TEME
TIME_SYSTEM    = UTC
MEAN_ELEMENT_THEORY = SGP/SGP4

EPOCH          = 2025-11-25T01:14:31.592256
MEAN_MOTION    = 15.03943852
ECCENTRICITY   = .0013946
INCLINATION    = 82.5174
RA_OF_ASC_NODE = 78.1638
ARG_OF_PERICENTER = 331.4403
MEAN_ANOMALY   = 28.6057

EPHEMERIS_TYPE = 0
CLASSIFICATION_TYPE = U
NORAD_CAT_ID   = 21397
ELEMENT_SET_NO = 999
REV_AT_EPOCH   = 84930
BSTAR          = .37605E-3
MEAN_MOTION_DOT = .5223E-4
MEAN_MOTION_DDOT = 0

