ARIANE 40 R/B           
1 20443U 90005H   25329.08748615  .00000398  00000+0  14047-3 0  9995
2 20443  98.3266  27.7625 0010736 154.0954 206.0774 14.39778874877751
DELTA 2 R/B(1)          
1 20453U 90008B   25328.77846280  .00036811  00000+0  62114-3 0  9998
2 20453  35.6049 136.3570 0114648  14.0640 346.3244 15.43475177909858
COSMOS 2058             
1 20465U 90010A   25329.00246395  .00004979  00000+0  30248-3 0  9995
2 20465  82.4630 150.4804 0009465 344.9275  15.1671 15.10245890926432
SL-14 R/B               
1 20466U 90010B   25329.07310128  .00000544  00000+0  63217-4 0  9996
2 20466  82.5032   5.6396 0018302 285.8790  74.0407 14.83447682912979
SL-14 R/B               
1 20511U 90018B   25329.05788505  .00000559  00000+0  67340-4 0  9998
2 20511  82.5198 320.8934 0017967  77.6517 282.6707 14.82019987907081
HST                     
1 20580U 90037B   25328.89459890  .00008828  00000+0  30886-3 0  9999
2 20580  28.4701  33.9153 0001962  52.6598 307.4176 15.27692219757265
SL-16 R/B               
1 20625U 90046B   25328.93138249  .00000223  00000+0  13943-3 0  9992
2 20625  70.9962 157.9205 0012251 106.4903 253.7566 14.14991565833578
COSMOS 2084             
1 20663U 90055A   25329.09269066  .00003308  00000+0  24417-3 0  9999
2 20663  62.7911 332.1160 0034512 172.5294 187.6328 15.04858853920571
SL-6 R/B(2)             
1 20666U 90055D   25329.07010084  .00003198  00000+0  25096-3 0  9995
2 20666  62.7831 249.4474 0011279 294.5532  65.4391 15.02957326922464
SL-8 R/B                
1 20775U 90078B   25329.08225183  .00026985  00000+0  83532-3 0  9998
2 20775  82.9053 345.1023 0377634   5.1497 355.3428 14.84862212793753
SL-8 R/B                
1 21088U 91006B   25329.01726538  .00000123  00000+0  10874-3 0  9996
2 21088  82.9429 247.8942 0021947 332.0379  38.8459 13.77486969749660
OKEAN-3                 
1 21397U 91039A   25329.05175454  .00005223  00000+0  37605-3 0  9991
2 21397  82.5174  78.1638 0013946 331.4403  28.6057 15.03943852849307
